IRIDIUM 126             
1 42809U 17039G   25050.42026570  .00000094  00000+0  26681-4 0  9990
2 42809  86.4016 195.3657 0002205 100.5446 259.5998 14.34218138400764
IRIDIUM 124             
1 42810U 17039H   25050.50974969  .00000978  00000+0  28457-3 0  9998
2 42810  86.4521 132.1825 0002231  88.4995 271.6462 14.43286753405499
IRIDIUM 128             
1 42811U 17039J   25050.48077212  .00000276  00000+0  91632-4 0  9998
2 42811  86.3951 226.8227 0002296  85.0129 275.1328 14.34218689400797
IRIDIUM 121             
1 42812U 17039K   25050.16021706  .00000119  00000+0  35355-4 0  9997
2 42812  86.4015 195.4983 0001998  90.9631 269.1794 14.34218093400712
IRIDIUM 133             
1 42955U 17061A   25049.95433633  .00000007  00000+0 -44829-5 0  9995
2 42955  86.3950 227.1484 0002229  90.4473 269.6978 14.34217572385513
IRIDIUM 100             
1 42956U 17061B   25049.94799273  .00000091  00000+0  25450-4 0  9990
2 42956  86.3949 227.0811 0002210  90.4264 269.7185 14.34218308385512
IRIDIUM 122             
1 42957U 17061C   25050.47442861  .00000066  00000+0  16609-4 0  9997
2 42957  86.3950 226.8599 0002345  95.4153 264.7310 14.34218000385598
IRIDIUM 129             
1 42958U 17061D   25050.49979855  .00000024  00000+0  16637-5 0  9994
2 42958  86.3950 226.9111 0001876 101.7106 258.4301 14.34217636385614
